{
  "norad_id": 53036,
  "name": "STARLINK-4155",
  "history": [
    {
      "epoch": "2026-03-28T21:21:19.570176Z",
      "apogee_km": 540.920070592636,
      "perigee_km": 538.5545726471,
      "latitude_deg": 5.748085067588089e-05,
      "longitude_deg": -158.7039721876097,
      "height_km": 540.9852714762263,
      "semi_major_axis_km": 6917.874321619867,
      "eccentricity": 0.00017097,
      "inclination_deg": 53.2204,
      "raan_deg": 347.9313,
      "arg_perigee_deg": 107.3305,
      "mean_anomaly_deg": 252.7875,
      "mean_motion_rev_day": 15.08841985
    },
    {
      "epoch": "2026-03-29T00:32:05.881920Z",
      "apogee_km": 540.9175786544274,
      "perigee_km": 538.5613499306892,
      "latitude_deg": -5.748756120854346e-05,
      "longitude_deg": 152.87719800902477,
      "height_km": 540.9409370017418,
      "semi_major_axis_km": 6917.876464292558,
      "eccentricity": 0.0001703,
      "inclination_deg": 53.2206,
      "raan_deg": 347.3361,
      "arg_perigee_deg": 105.0455,
      "mean_anomaly_deg": 255.0725,
      "mean_motion_rev_day": 15.08841284
    },
    {
      "epoch": "2026-03-30T01:58:16.019904Z",
      "apogee_km": 540.7324032634442,
      "perigee_km": 538.741439148921,
      "latitude_deg": 6.827778626649638e-05,
      "longitude_deg": 125.52972496496315,
      "height_km": 540.5309518591453,
      "semi_major_axis_km": 6917.873921206182,
      "eccentricity": 0.0001439,
      "inclination_deg": 53.2183,
      "raan_deg": 342.5754,
      "arg_perigee_deg": 84.1384,
      "mean_anomaly_deg": 275.9773,
      "mean_motion_rev_day": 15.08842116
    },
    {
      "epoch": "2026-03-30T01:58:16.020768Z",
      "apogee_km": 540.7324693851497,
      "perigee_km": 538.7413669140278,
      "latitude_deg": 6.734629259059008e-05,
      "longitude_deg": 125.52972066255677,
      "height_km": 540.5309417400454,
      "semi_major_axis_km": 6917.8739181495885,
      "eccentricity": 0.00014391,
      "inclination_deg": 53.2183,
      "raan_deg": 342.5754,
      "arg_perigee_deg": 84.1384,
      "mean_anomaly_deg": 275.9773,
      "mean_motion_rev_day": 15.08842117
    },
    {
      "epoch": "2026-03-30T09:55:11.594496Z",
      "apogee_km": 540.7299236104627,
      "perigee_km": 538.727339867387,
      "latitude_deg": 3.193629528778013e-05,
      "longitude_deg": 4.485793114157875,
      "height_km": 540.5562696122729,
      "semi_major_axis_km": 6917.865631738924,
      "eccentricity": 0.00014474,
      "inclination_deg": 53.2183,
      "raan_deg": 341.0895,
      "arg_perigee_deg": 86.1033,
      "mean_anomaly_deg": 274.0125,
      "mean_motion_rev_day": 15.08844828
    },
    {
      "epoch": "2026-03-30T21:02:53.812608Z",
      "apogee_km": 540.8096275588287,
      "perigee_km": 538.6832085537853,
      "latitude_deg": -9.901293225689188e-06,
      "longitude_deg": -164.97917315432315,
      "height_km": 540.5224747098335,
      "semi_major_axis_km": 6917.883418056306,
      "eccentricity": 0.00015369,
      "inclination_deg": 53.2194,
      "raan_deg": 339.0075,
      "arg_perigee_deg": 83.5394,
      "mean_anomaly_deg": 276.5773,
      "mean_motion_rev_day": 15.08839009
    }
  ]
}